NORAD_CAT_ID,OBJECT_NAME,OBJECT_TYPE,EPOCH,MEAN_MOTION,ECCENTRICITY,INCLINATION,RA_OF_ASC_NODE,ARG_OF_PERICENTER,MEAN_ANOMALY,BSTAR,MEAN_MOTION_DOT,MEAN_MOTION_DDOT,TLE_LINE0,TLE_LINE1,TLE_LINE2,SEMIMAJOR_AXIS,PERIOD,APOGEE,PERIGEE,DECAYED
49758.0,STARLINK-3194,PAYLOAD,2023-01-13 16:58:00,15.08824164,0.0003085,53.2153,266.0956,21.9406,338.1717,-0.00017961,-3.145e-05,0.0,0 STARLINK-3194,1 49758U 21115AL  23013.70695321 -.00003145  00000-0 -17961-3 0  9997,2 49758  53.2153 266.0956 0003085  21.9406 338.1717 15.08824164 63026,6917.929,95.439,541.928,537.66,0.0
49758.0,STARLINK-3194,PAYLOAD,2023-01-14 02:30:19,15.08830205,0.0002945,53.2164,264.3105,29.6095,330.5064,-6.5912e-05,-1.337e-05,0.0,0 STARLINK-3194,1 49758U 21115AL  23014.10439435 -.00001337  00000-0 -65912-4 0  9995,2 49758  53.2164 264.3105 0002945  29.6095 330.5064 15.08830205 63088,6917.91,95.438,541.813,537.738,0.0
49758.0,STARLINK-3194,PAYLOAD,2023-01-15 08:42:39,15.08829896,0.0002976,53.2158,258.6592,29.1759,330.9399,0.00010958,1.455e-05,0.0,0 STARLINK-3194,1 49758U 21115AL  23015.36296105  .00001455  00000-0  10958-3 0  9997,2 49758  53.2158 258.6592 0002976  29.1759 330.9399 15.08829896 63273,6917.911,95.438,541.835,537.7180000000001,0.0
49758.0,STARLINK-3194,PAYLOAD,2023-01-15 15:04:12,15.0882929,0.0002822,53.2135,257.4706,31.7325,328.3837,0.00015973,2.254e-05,0.0,0 STARLINK-3194,1 49758U 21115AL  23015.62792640  .00002254  00000-0  15973-3 0  9991,2 49758  53.2135 257.4706 0002822  31.7325 328.3837 15.08829290 62208,6917.9130000000005,95.438,541.73,537.826,0.0
49758.0,STARLINK-3194,PAYLOAD,2023-01-15 23:01:07,15.08844795,0.0002563,53.2133,255.984,27.5181,332.5946,0.00034948,5.279e-05,0.0,0 STARLINK-3194,1 49758U 21115AL  23015.95911992  .00005279  00000-0  34948-3 0  9993,2 49758  53.2133 255.9840 0002563  27.5181 332.5946 15.08844795 62253,6917.866,95.437,541.504,537.9580000000001,0.0
49758.0,STARLINK-3194,PAYLOAD,2023-01-16 22:51:55,15.08832011,0.0002316,53.2133,251.5232,32.9725,327.1411,-4.1272e-05,-9.45e-06,0.0,0 STARLINK-3194,1 49758U 21115AL  23016.95273070 -.00000945  00000-0 -41272-4 0  9998,2 49758  53.2133 251.5232 0002316  32.9725 327.1411 15.08832011 63515,6917.905,95.438,541.372,538.168,0.0
49758.0,STARLINK-3194,PAYLOAD,2023-01-17 08:24:14,15.08830995,0.0002355,53.2145,249.7388,39.263000000000005,320.8533,2.8782e-05,1.7e-06,0.0,0 STARLINK-3194,1 49758U 21115AL  23017.35017361  .00000170  00000-0  28782-4 0  9991,2 49758  53.2145 249.7388 0002355  39.2630 320.8533 15.08830995 62464,6917.908,95.438,541.4019999999999,538.144,0.0
49758.0,STARLINK-3194,PAYLOAD,2023-01-17 16:21:10,15.08833195,0.0002214,53.2146,248.2525,41.1866,318.9293,6.277600000000001e-05,7.11e-06,0.0,0 STARLINK-3194,1 49758U 21115AL  23017.68137448  .00000711  00000-0  62776-4 0  9998,2 49758  53.2146 248.2525 0002214  41.1866 318.9293 15.08833195 62511,6917.901,95.438,541.298,538.235,0.0
49758.0,STARLINK-3194,PAYLOAD,2023-01-18 00:18:06,15.0884202,0.0002208,53.2146,246.7655,39.3726,320.7426,9.2936e-05,1.191e-05,0.0,0 STARLINK-3194,1 49758U 21115AL  23018.01257075  .00001191  00000-0  92936-4 0  9999,2 49758  53.2146 246.7655 0002208  39.3726 320.7426 15.08842020 63679,6917.874,95.437,541.2669999999999,538.212,0.0
49758.0,STARLINK-3194,PAYLOAD,2023-01-18 08:15:01,15.08844735,0.0002171999999999,53.2147,245.2786,40.7103,319.4051,0.00011261,1.505e-05,0.0,0 STARLINK-3194,1 49758U 21115AL  23018.34376941  .00001505  00000-0  11261-3 0  9999,2 49758  53.2147 245.2786 0002172  40.7103 319.4051 15.08844735 62611,6917.866,95.437,541.2330000000001,538.2280000000001,0.0
49758.0,STARLINK-3194,PAYLOAD,2023-01-18 20:58:06,15.08847349,0.0002051,53.2144,242.8995,47.2066,312.9099,0.00030012,4.492e-05,0.0,0 STARLINK-3194,1 49758U 21115AL  23018.87369102  .00004492  00000-0  30012-3 0  9991,2 49758  53.2144 242.8995 0002051  47.2066 312.9099 15.08847349 62691,6917.858,95.437,541.1419999999999,538.304,0.0
49758.0,STARLINK-3194,PAYLOAD,2023-01-19 08:05:48,15.08844562,0.0002036,53.2144,240.8186,45.7079,314.408,0.00019795,2.864e-05,0.0,0 STARLINK-3194,1 49758U 21115AL  23019.33737166  .00002864  00000-0  19795-3 0  9998,2 49758  53.2144 240.8186 0002036  45.7079 314.4080 15.08844562 63873,6917.866,95.437,541.14,538.323,0.0
49758.0,STARLINK-3194,PAYLOAD,2023-01-19 22:24:17,15.08839831,0.0001916999999999,53.214,238.1413,53.9708,306.1461,8.3371e-05,1.039e-05,0.0,0 STARLINK-3194,1 49758U 21115AL  23019.93353393  .00001039  00000-0  83371-4 0  9995,2 49758  53.2140 238.1413 0001917  53.9708 306.1461 15.08839831 63963,6917.880999999999,95.438,541.072,538.42,0.0
49758.0,STARLINK-3194,PAYLOAD,2023-01-20 07:56:36,15.08843239,0.0001927,53.2142,236.3571,53.883,306.23400000000004,0.00016603,2.355e-05,0.0,0 STARLINK-3194,1 49758U 21115AL  23020.33097398  .00002355  00000-0  16603-3 0  9996,2 49758  53.2142 236.3571 0001927  53.8830 306.2340 15.08843239 62914,6917.87,95.437,541.069,538.4019999999999,0.0
49758.0,STARLINK-3194,PAYLOAD,2023-01-20 23:50:27,15.08852147,0.0001950999999999,53.2139,233.3839,56.142,303.9757,0.0004431999999999,6.775e-05,0.0,0 STARLINK-3194,1 49758U 21115AL  23020.99337163  .00006775  00000-0  44320-3 0  9992,2 49758  53.2139 233.3839 0001951  56.1420 303.9757 15.08852147 64121,6917.843000000001,95.437,541.058,538.359,0.0
49758.0,STARLINK-3194,PAYLOAD,2023-01-21 15:44:18,15.08845468,0.0001963,53.2137,230.4099,57.274,302.8441,0.00025574,3.785e-05,0.0,0 STARLINK-3194,1 49758U 21115AL  23021.65577296  .00003785  00000-0  25574-3 0  9997,2 49758  53.2137 230.4099 0001963  57.2740 302.8441 15.08845468 64222,6917.8640000000005,95.437,541.087,538.371,0.0
49758.0,STARLINK-3194,PAYLOAD,2023-01-22 13:59:42,15.08840347,0.0001884,53.2138,226.247,62.5528,297.5655,1.2496e-05,-8.9e-07,0.0,0 STARLINK-3194,1 49758U 21115AL  23022.58313227 -.00000089  00000-0  12496-4 0  9997,2 49758  53.2138 226.2470 0001884  62.5528 297.5655 15.08840347 64367,6917.879,95.438,541.048,538.441,0.0
49758.0,STARLINK-3194,PAYLOAD,2023-01-23 20:12:02,15.08840393,0.0001837,53.215,220.5966,72.584,287.5353,8.1128e-05,1.003e-05,0.0,0 STARLINK-3194,1 49758U 21115AL  23023.84169362  .00001003  00000-0  81128-4 0  9990,2 49758  53.2150 220.5966 0001837  72.5840 287.5353 15.08840393 64550,6917.879,95.438,541.015,538.4730000000001,0.0
49758.0,STARLINK-3194,PAYLOAD,2023-01-25 05:35:08,15.0883918,0.0001747,53.2153,214.3517,67.6668,292.451,7.0993e-05,8.42e-06,0.0,0 STARLINK-3194,1 49758U 21115AL  23025.23273653  .00000842  00000-0  70993-4 0  9992,2 49758  53.2153 214.3517 0001747  67.6668 292.4510 15.08839180 64764,6917.883000000001,95.438,540.956,538.539,0.0
49758.0,STARLINK-3194,PAYLOAD,2023-01-25 19:53:36,15.08841203,0.0001742,53.2155,211.6754,70.8704,289.2477,7.6588e-05,9.31e-06,0.0,0 STARLINK-3194,1 49758U 21115AL  23025.82889570  .00000931  00000-0  76588-4 0  9993,2 49758  53.2155 211.6754 0001742  70.8704 289.2477 15.08841203 63743,6917.877,95.437,540.947,538.5369999999999,0.0
49758.0,STARLINK-3194,PAYLOAD,2023-01-25 21:28:59,15.08841731,0.0001738,53.2153,211.3779,70.2152,289.9028,7.8488e-05,9.61e-06,0.0,0 STARLINK-3194,1 49758U 21115AL  23025.89513534  .00000961  00000-0  78488-4 0  9998,2 49758  53.2153 211.3779 0001738  70.2152 289.9028 15.08841731 63757,6917.875,95.437,540.942,538.538,0.0
49758.0,STARLINK-3194,PAYLOAD,2023-01-26 22:55:09,15.08847923,0.0001623,53.2152,206.6198,71.013,289.1038,0.00010602,1.4e-05,0.0,0 STARLINK-3194,1 49758U 21115AL  23026.95496917  .00001400  00000-0  10602-3 0  9993,2 49758  53.2152 206.6198 0001623  71.0130 289.1038 15.08847923 65020,6917.856,95.437,540.844,538.5980000000001,0.0
49758.0,STARLINK-3194,PAYLOAD,2023-01-27 11:38:15,15.08835005,0.0001313,53.2154,204.241,73.5091,286.6045,3.5046e-05,2.7000000000000004e-06,0.0,0 STARLINK-3194,1 49758U 21115AL  23027.48489804  .00000270  00000-0  35046-4 0  9993,2 49758  53.2154 204.2410 0001313  73.5091 286.6045 15.08835005 65109,6917.896,95.438,540.669,538.852,0.0
49758.0,STARLINK-3194,PAYLOAD,2023-01-27 16:24:24,15.08837386,0.000162,53.2149,203.3491,72.0479,288.069,3.5958000000000004e-05,2.84e-06,0.0,0 STARLINK-3194,1 49758U 21115AL  23027.68361765  .00000284  00000-0  35958-4 0  9997,2 49758  53.2149 203.3491 0001620  72.0479 288.0690 15.08837386 64023,6917.888000000001,95.438,540.874,538.633,0.0
49758.0,STARLINK-3194,PAYLOAD,2023-01-28 05:07:29,15.08841106,0.0001593,53.215,200.9697,74.1697,285.947,3.7599e-05,3.1e-06,0.0,0 STARLINK-3194,1 49758U 21115AL  23028.21353476  .00000310  00000-0  37599-4 0  9990,2 49758  53.2150 200.9697 0001593  74.1697 285.9470 15.08841106 65219,6917.877,95.437,540.844,538.64,0.0
49758.0,STARLINK-3194,PAYLOAD,2023-01-28 21:01:20,15.0884725,0.0001587,53.215,197.9958,72.8007,287.3159,4.3652e-05,4.07e-06,0.0,0 STARLINK-3194,1 49758U 21115AL  23028.87593026  .00000407  00000-0  43652-4 0  9993,2 49758  53.2150 197.9958 0001587  72.8007 287.3159 15.08847250 64201,6917.858,95.437,540.821,538.625,0.0
49758.0,STARLINK-3194,PAYLOAD,2023-01-29 11:19:49,15.0883178,0.0001515,53.2146,195.3194,76.6946,283.4214,3.0996e-05,2.05e-06,0.0,0 STARLINK-3194,1 49758U 21115AL  23029.47210127  .00000205  00000-0  30996-4 0  9991,2 49758  53.2146 195.3194 0001515  76.6946 283.4214 15.08831780 65408,6917.906,95.438,540.819,538.722,0.0
49758.0,STARLINK-3194,PAYLOAD,2023-01-29 20:52:08,15.0883325,0.0001571,53.2157,193.5352,81.0493,279.0677,1.6313e-05,-2.8e-07,0.0,0 STARLINK-3194,1 49758U 21115AL  23029.86954165 -.00000028  00000-0  16313-4 0  9992,2 49758  53.2157 193.5352 0001571  81.0493 279.0677 15.08833250 64356,6917.901,95.438,540.853,538.679,0.0
49758.0,STARLINK-3194,PAYLOAD,2023-01-30 11:10:36,15.08834857,0.0001524,53.2154,190.8586,81.7194,278.397,-8.2175e-07,-3.01e-06,0.0,0 STARLINK-3194,1 49758U 21115AL  23030.46570315 -.00000301  00000-0 -82175-6 0  9997,2 49758  53.2154 190.8586 0001524  81.7194 278.3970 15.08834857 64447,6917.896,95.438,540.815,538.707,0.0
